TEVEL2-7                
1 63238U 25052AE  26068.66113295  .00019244  00000+0  69668-3 0  9998
2 63238  97.4054 324.3041 0008105 124.6830 235.5175 15.28414096 54803
STARLINK-34342          
1 64271U 25120R   26068.54973839  .00034198  00000+0  11616-2 0  9991
2 64271  53.1578 117.4182 0001218  79.6641 280.4497 15.30196937 43847
